{
  "type": "FeatureCollection",
  "features": [
    {
      "type": "Feature",
      "properties": {
        "norad_id": 41948,
        "name": "CARTOSAT-2D",
        "group": "resource",
        "lat": 44.67243986806557,
        "lon": -115.12906478171993,
        "alt_km": 501.0312139224834,
        "timestamp": "2025-12-26T03:50:11.745232+00:00",
        "meta_object_name": "CARTOSAT-2D",
        "meta_object_id": "2017-008A",
        "meta_epoch": "2025-12-25T19:20:30.319008",
        "meta_mean_motion": 15.19193005,
        "meta_eccentricity": 0.0005412,
        "meta_inclination": 97.4367,
        "meta_ra_of_asc_node": 57.1029,
        "meta_arg_of_pericenter": 115.3278,
        "meta_mean_anomaly": 244.8518,
        "meta_ephemeris_type": 0,
        "meta_classification_type": "U",
        "meta_norad_cat_id": 41948,
        "meta_element_set_no": 999,
        "meta_rev_at_epoch": 49125,
        "meta_bstar": 0.00021321,
        "meta_mean_motion_dot": 4.42e-05,
        "meta_mean_motion_ddot": 0,
        "tle_line1": "1 41948U 17008A   25359.80590647  .00004420  00000+0  21321-3 0  9996",
        "tle_line2": "2 41948  97.4367  57.1029 0005412 115.3278 244.8518 15.19193005491254"
      },
      "geometry": {
        "type": "Point",
        "coordinates": [
          -115.12906478171993,
          44.67243986806557
        ]
      }
    },
    {
      "type": "Feature",
      "properties": {
        "norad_id": 42063,
        "name": "SENTINEL-2B",
        "group": "resource",
        "lat": 28.678069452220317,
        "lon": -102.8523516319586,
        "alt_km": 787.2477396479389,
        "timestamp": "2025-12-26T03:50:11.745242+00:00",
        "meta_object_name": "SENTINEL-2B",
        "meta_object_id": "2017-013A",
        "meta_epoch": "2025-12-25T20:25:14.220192",
        "meta_mean_motion": 14.30815257,
        "meta_eccentricity": 0.0001188,
        "meta_inclination": 98.5697,
        "meta_ra_of_asc_node": 72.1119,
        "meta_arg_of_pericenter": 89.5256,
        "meta_mean_anomaly": 270.6063,
        "meta_ephemeris_type": 0,
        "meta_classification_type": "U",
        "meta_norad_cat_id": 42063,
        "meta_element_set_no": 999,
        "meta_rev_at_epoch": 45985,
        "meta_bstar": 1.579e-05,
        "meta_mean_motion_dot": -2e-08,
        "meta_mean_motion_ddot": 0,
        "tle_line1": "1 42063U 17013A   25359.85085903 -.00000002  00000+0  15790-4 0  9997",
        "tle_line2": "2 42063  98.5697  72.1119 0001188  89.5256 270.6063 14.30815257459856"
      },
      "geometry": {
        "type": "Point",
        "coordinates": [
          -102.8523516319586,
          28.678069452220317
        ]
      }
    },
    {
      "type": "Feature",
      "properties": {
        "norad_id": 42767,
        "name": "CARTOSAT-2E",
        "group": "resource",
        "lat": 43.44938819859263,
        "lon": 50.445264749282195,
        "alt_km": 505.69648616691666,
        "timestamp": "2025-12-26T03:50:11.745253+00:00",
        "meta_object_name": "CARTOSAT-2E",
        "meta_object_id": "2017-036C",
        "meta_epoch": "2025-12-25T19:44:23.716608",
        "meta_mean_motion": 15.19197894,
        "meta_eccentricity": 0.0002532,
        "meta_inclination": 97.4535,
        "meta_ra_of_asc_node": 57.2364,
        "meta_arg_of_pericenter": 170.3505,
        "meta_mean_anomaly": 189.7779,
        "meta_ephemeris_type": 0,
        "meta_classification_type": "U",
        "meta_norad_cat_id": 42767,
        "meta_element_set_no": 999,
        "meta_rev_at_epoch": 47182,
        "meta_bstar": 0.00011282,
        "meta_mean_motion_dot": 2.306e-05,
        "meta_mean_motion_ddot": 0,
        "tle_line1": "1 42767U 17036C   25359.82249672  .00002306  00000+0  11282-3 0  9994",
        "tle_line2": "2 42767  97.4535  57.2364 0002532 170.3505 189.7779 15.19197894471825"
      },
      "geometry": {
        "type": "Point",
        "coordinates": [
          50.445264749282195,
          43.44938819859263
        ]
      }
    },
    {
      "type": "Feature",
      "properties": {
        "norad_id": 42920,
        "name": "FORMOSAT-5",
        "group": "resource",
        "lat": 37.7627536919443,
        "lon": 67.75993548704882,
        "alt_km": 725.9244794967362,
        "timestamp": "2025-12-26T03:50:11.745263+00:00",
        "meta_object_name": "FORMOSAT-5",
        "meta_object_id": "2017-049A",
        "meta_epoch": "2025-12-25T19:23:03.970176",
        "meta_mean_motion": 14.50767953,
        "meta_eccentricity": 0.0009846,
        "meta_inclination": 98.2438,
        "meta_ra_of_asc_node": 73.8632,
        "meta_arg_of_pericenter": 256.772,
        "meta_mean_anomaly": 103.2377,
        "meta_ephemeris_type": 0,
        "meta_classification_type": "U",
        "meta_norad_cat_id": 42920,
        "meta_element_set_no": 999,
        "meta_rev_at_epoch": 44153,
        "meta_bstar": 7.3108e-05,
        "meta_mean_motion_dot": 2.44e-06,
        "meta_mean_motion_ddot": 0,
        "tle_line1": "1 42920U 17049A   25359.80768484  .00000244  00000+0  73108-4 0  9999",
        "tle_line2": "2 42920  98.2438  73.8632 0009846 256.7720 103.2377 14.50767953441535"
      },
      "geometry": {
        "type": "Point",
        "coordinates": [
          67.75993548704882,
          37.7627536919443
        ]
      }
    },
    {
      "type": "Feature",
      "properties": {
        "norad_id": 42969,
        "name": "SENTINEL-5P",
        "group": "resource",
        "lat": 3.473711757349033,
        "lon": -61.911580223220554,
        "alt_km": 829.3691326301005,
        "timestamp": "2025-12-26T03:50:11.745273+00:00",
        "meta_object_name": "SENTINEL-5P",
        "meta_object_id": "2017-064A",
        "meta_epoch": "2025-12-25T17:40:12.395712",
        "meta_mean_motion": 14.19520693,
        "meta_eccentricity": 0.0001064,
        "meta_inclination": 98.7802,
        "meta_ra_of_asc_node": 298.2061,
        "meta_arg_of_pericenter": 90.9871,
        "meta_mean_anomaly": 269.1427,
        "meta_ephemeris_type": 0,
        "meta_classification_type": "U",
        "meta_norad_cat_id": 42969,
        "meta_element_set_no": 999,
        "meta_rev_at_epoch": 42495,
        "meta_bstar": 6.8609e-05,
        "meta_mean_motion_dot": 1e-06,
        "meta_mean_motion_ddot": 0,
        "tle_line1": "1 42969U 17064A   25359.73625458  .00000100  00000+0  68609-4 0  9995",
        "tle_line2": "2 42969  98.7802 298.2061 0001064  90.9871 269.1427 14.19520693424954"
      },
      "geometry": {
        "type": "Point",
        "coordinates": [
          -61.911580223220554,
          3.473711757349033
        ]
      }
    },
    {
      "type": "Feature",
      "properties": {
        "norad_id": 42987,
        "name": "SKYSAT-C11",
        "group": "resource",
        "lat": -1.058137819150287,
        "lon": -42.14915788063358,
        "alt_km": 425.7554662473958,
        "timestamp": "2025-12-26T03:50:11.745283+00:00",
        "meta_object_name": "SKYSAT-C11",
        "meta_object_id": "2017-068A",
        "meta_epoch": "2025-12-24T21:34:50.650176",
        "meta_mean_motion": 15.4796518,
        "meta_eccentricity": 0.0001116,
        "meta_inclination": 97.4153,
        "meta_ra_of_asc_node": 136.6958,
        "meta_arg_of_pericenter": 96.4287,
        "meta_mean_anomaly": 263.709,
        "meta_ephemeris_type": 0,
        "meta_classification_type": "U",
        "meta_norad_cat_id": 42987,
        "meta_element_set_no": 999,
        "meta_rev_at_epoch": 45619,
        "meta_bstar": 0.00045752,
        "meta_mean_motion_dot": 0.00023827,
        "meta_mean_motion_ddot": 0,
        "tle_line1": "1 42987U 17068A   25358.89919734  .00023827  00000+0  45752-3 0  9992",
        "tle_line2": "2 42987  97.4153 136.6958 0001116  96.4287 263.7090 15.47965180456192"
      },
      "geometry": {
        "type": "Point",
        "coordinates": [
          -42.14915788063358,
          -1.058137819150287
        ]
      }
    },
    {
      "type": "Feature",
      "properties": {
        "norad_id": 42988,
        "name": "SKYSAT-C10",
        "group": "resource",
        "lat": -50.04892657511197,
        "lon": -57.910061994718994,
        "alt_km": 479.2710965461665,
        "timestamp": "2025-12-26T03:50:11.745294+00:00",
        "meta_object_name": "SKYSAT-C10",
        "meta_object_id": "2017-068B",
        "meta_epoch": "2025-12-24T19:29:00.783168",
        "meta_mean_motion": 15.32071049,
        "meta_eccentricity": 0.00043105,
        "meta_inclination": 97.4272,
        "meta_ra_of_asc_node": 129.6977,
        "meta_arg_of_pericenter": 75.127,
        "meta_mean_anomaly": 285.0448,
        "meta_ephemeris_type": 0,
        "meta_classification_type": "U",
        "meta_norad_cat_id": 42988,
        "meta_element_set_no": 999,
        "meta_rev_at_epoch": 45564,
        "meta_bstar": 0.00040464637,
        "meta_mean_motion_dot": 0.00012461,
        "meta_mean_motion_ddot": 0,
        "tle_line1": "1 42988U 17068B   25358.81181462  .00012461  00000+0  40465-3 0  9992",
        "tle_line2": "2 42988  97.4272 129.6977 0004310  75.1270 285.0448 15.32071049455642"
      },
      "geometry": {
        "type": "Point",
        "coordinates": [
          -57.910061994718994,
          -50.04892657511197
        ]
      }
    }
  ]
}